{
  "type": "FeatureCollection",
  "features": [
    {
      "type": "Feature",
      "properties": {
        "norad_id": 31888,
        "name": "FENGYUN 1C DEB",
        "group": "fengyun-1c-debris",
        "lat": 79.93400148428223,
        "lon": -153.67748890405818,
        "alt_km": 780.2777692382724,
        "timestamp": "2025-12-11T07:02:24.014854+00:00",
        "meta_object_name": "FENGYUN 1C DEB",
        "meta_object_id": "1999-025CKP",
        "meta_epoch": "2025-12-09T12:46:19.286688",
        "meta_mean_motion": 14.33869368,
        "meta_eccentricity": 0.0017415,
        "meta_inclination": 99.155,
        "meta_ra_of_asc_node": 269.7513,
        "meta_arg_of_pericenter": 227.0258,
        "meta_mean_anomaly": 132.9465,
        "meta_ephemeris_type": 0,
        "meta_classification_type": "U",
        "meta_norad_cat_id": 31888,
        "meta_element_set_no": 999,
        "meta_rev_at_epoch": 95591,
        "meta_bstar": 0.0028784,
        "meta_mean_motion_dot": 7.988e-05,
        "meta_mean_motion_ddot": 0,
        "tle_line1": "1 31888U 99025CKP 25343.53216767  .00007988  00000+0  28784-2 0  9999",
        "tle_line2": "2 31888  99.1550 269.7513 0017415 227.0258 132.9465 14.33869368955916"
      },
      "geometry": {
        "type": "Point",
        "coordinates": [
          -153.67748890405818,
          79.93400148428223
        ]
      }
    },
    {
      "type": "Feature",
      "properties": {
        "norad_id": 31890,
        "name": "FENGYUN 1C DEB",
        "group": "fengyun-1c-debris",
        "lat": -69.69365450643936,
        "lon": 152.35882784030935,
        "alt_km": 814.5717781401363,
        "timestamp": "2025-12-11T07:02:24.014863+00:00",
        "meta_object_name": "FENGYUN 1C DEB",
        "meta_object_id": "1999-025CKR",
        "meta_epoch": "2025-12-10T07:42:33.875424",
        "meta_mean_motion": 14.10131254,
        "meta_eccentricity": 0.0071571,
        "meta_inclination": 98.7184,
        "meta_ra_of_asc_node": 355.9158,
        "meta_arg_of_pericenter": 249.1097,
        "meta_mean_anomaly": 110.2401,
        "meta_ephemeris_type": 0,
        "meta_classification_type": "U",
        "meta_norad_cat_id": 31890,
        "meta_element_set_no": 999,
        "meta_rev_at_epoch": 64118,
        "meta_bstar": 0.00021407,
        "meta_mean_motion_dot": 3.44e-06,
        "meta_mean_motion_ddot": 0,
        "tle_line1": "1 31890U 99025CKR 25344.32122541  .00000344  00000+0  21407-3 0  9991",
        "tle_line2": "2 31890  98.7184 355.9158 0071571 249.1097 110.2401 14.10131254641180"
      },
      "geometry": {
        "type": "Point",
        "coordinates": [
          152.35882784030935,
          -69.69365450643936
        ]
      }
    },
    {
      "type": "Feature",
      "properties": {
        "norad_id": 31891,
        "name": "FENGYUN 1C DEB",
        "group": "fengyun-1c-debris",
        "lat": 26.988154971694904,
        "lon": -4.419801847400227,
        "alt_km": 1167.3077489765237,
        "timestamp": "2025-12-11T07:02:24.014873+00:00",
        "meta_object_name": "FENGYUN 1C DEB",
        "meta_object_id": "1999-025CKS",
        "meta_epoch": "2025-12-06T00:20:55.229568",
        "meta_mean_motion": 13.66193809,
        "meta_eccentricity": 0.0224822,
        "meta_inclination": 99.4024,
        "meta_ra_of_asc_node": 355.2939,
        "meta_arg_of_pericenter": 200.6432,
        "meta_mean_anomaly": 158.5519,
        "meta_ephemeris_type": 0,
        "meta_classification_type": "U",
        "meta_norad_cat_id": 31891,
        "meta_element_set_no": 999,
        "meta_rev_at_epoch": 92318,
        "meta_bstar": 0.00081038713,
        "meta_mean_motion_dot": 7.52e-06,
        "meta_mean_motion_ddot": 0,
        "tle_line1": "1 31891U 99025CKS 25340.01452812  .00000752  00000+0  81039-3 0  9991",
        "tle_line2": "2 31891  99.4024 355.2939 0224822 200.6432 158.5519 13.66193809923188"
      },
      "geometry": {
        "type": "Point",
        "coordinates": [
          -4.419801847400227,
          26.988154971694904
        ]
      }
    },
    {
      "type": "Feature",
      "properties": {
        "norad_id": 31892,
        "name": "FENGYUN 1C DEB",
        "group": "fengyun-1c-debris",
        "lat": -57.24580197528811,
        "lon": 169.66786955116294,
        "alt_km": 622.2804960785061,
        "timestamp": "2025-12-11T07:02:24.014883+00:00",
        "meta_object_name": "FENGYUN 1C DEB",
        "meta_object_id": "1999-025CKT",
        "meta_epoch": "2025-12-06T17:19:53.766912",
        "meta_mean_motion": 14.41156255,
        "meta_eccentricity": 0.01986119,
        "meta_inclination": 99.2881,
        "meta_ra_of_asc_node": 149.9643,
        "meta_arg_of_pericenter": 304.4066,
        "meta_mean_anomaly": 53.8482,
        "meta_ephemeris_type": 0,
        "meta_classification_type": "U",
        "meta_norad_cat_id": 31892,
        "meta_element_set_no": 999,
        "meta_rev_at_epoch": 64819,
        "meta_bstar": 0.001005312,
        "meta_mean_motion_dot": 4.04e-05,
        "meta_mean_motion_ddot": 0,
        "tle_line1": "1 31892U 99025CKT 25340.72215008  .00004040  00000+0  10053-2 0  9995",
        "tle_line2": "2 31892  99.2881 149.9643 0198611 304.4066  53.8482 14.41156255648199"
      },
      "geometry": {
        "type": "Point",
        "coordinates": [
          169.66786955116294,
          -57.24580197528811
        ]
      }
    },
    {
      "type": "Feature",
      "properties": {
        "norad_id": 31893,
        "name": "FENGYUN 1C DEB",
        "group": "fengyun-1c-debris",
        "lat": -12.046133107557814,
        "lon": 121.47136654779187,
        "alt_km": 778.0389432851744,
        "timestamp": "2025-12-11T07:02:24.014893+00:00",
        "meta_object_name": "FENGYUN 1C DEB",
        "meta_object_id": "1999-025CKU",
        "meta_epoch": "2025-12-10T03:58:03.016416",
        "meta_mean_motion": 14.63735073,
        "meta_eccentricity": 0.0175148,
        "meta_inclination": 99.0702,
        "meta_ra_of_asc_node": 302.1839,
        "meta_arg_of_pericenter": 334.6448,
        "meta_mean_anomaly": 38.1514,
        "meta_ephemeris_type": 0,
        "meta_classification_type": "U",
        "meta_norad_cat_id": 31893,
        "meta_element_set_no": 999,
        "meta_rev_at_epoch": 98367,
        "meta_bstar": 0.00066013883,
        "meta_mean_motion_dot": 4.232e-05,
        "meta_mean_motion_ddot": 0,
        "tle_line1": "1 31893U 99025CKU 25344.16531269  .00004232  00000+0  66014-3 0  9990",
        "tle_line2": "2 31893  99.0702 302.1839 0175148 334.6448  38.1514 14.63735073983671"
      },
      "geometry": {
        "type": "Point",
        "coordinates": [
          121.47136654779187,
          -12.046133107557814
        ]
      }
    },
    {
      "type": "Feature",
      "properties": {
        "norad_id": 31895,
        "name": "FENGYUN 1C DEB",
        "group": "fengyun-1c-debris",
        "lat": 17.58931783701695,
        "lon": -162.82438656092978,
        "alt_km": 923.0315469496609,
        "timestamp": "2025-12-11T07:02:24.014903+00:00",
        "meta_object_name": "FENGYUN 1C DEB",
        "meta_object_id": "1999-025CKW",
        "meta_epoch": "2025-12-04T08:23:00.168864",
        "meta_mean_motion": 13.75460226,
        "meta_eccentricity": 0.02263483,
        "meta_inclination": 99.1028,
        "meta_ra_of_asc_node": 7.6273,
        "meta_arg_of_pericenter": 251.6022,
        "meta_mean_anomaly": 106.0398,
        "meta_ephemeris_type": 0,
        "meta_classification_type": "U",
        "meta_norad_cat_id": 31895,
        "meta_element_set_no": 999,
        "meta_rev_at_epoch": 61781,
        "meta_bstar": 0.0039968239,
        "meta_mean_motion_dot": 4.593e-05,
        "meta_mean_motion_ddot": 0,
        "tle_line1": "1 31895U 99025CKW 25338.34930751  .00004593  00000+0  39968-2 0  9991",
        "tle_line2": "2 31895  99.1028   7.6273 0226348 251.6022 106.0398 13.75460226617811"
      },
      "geometry": {
        "type": "Point",
        "coordinates": [
          -162.82438656092978,
          17.58931783701695
        ]
      }
    },
    {
      "type": "Feature",
      "properties": {
        "norad_id": 31898,
        "name": "FENGYUN 1C DEB",
        "group": "fengyun-1c-debris",
        "lat": -64.22233052410887,
        "lon": 11.468174680513345,
        "alt_km": 578.8552129042691,
        "timestamp": "2025-12-11T07:02:24.014933+00:00",
        "meta_object_name": "FENGYUN 1C DEB",
        "meta_object_id": "1999-025CKZ",
        "meta_epoch": "2025-12-09T09:45:56.221344",
        "meta_mean_motion": 14.68362334,
        "meta_eccentricity": 0.01439261,
        "meta_inclination": 98.7065,
        "meta_ra_of_asc_node": 207.9611,
        "meta_arg_of_pericenter": 229.9634,
        "meta_mean_anomaly": 128.887,
        "meta_ephemeris_type": 0,
        "meta_classification_type": "U",
        "meta_norad_cat_id": 31898,
        "meta_element_set_no": 999,
        "meta_rev_at_epoch": 65663,
        "meta_bstar": 0.0015942515,
        "meta_mean_motion_dot": 0.00010733,
        "meta_mean_motion_ddot": 0,
        "tle_line1": "1 31898U 99025CKZ 25343.40690071  .00010733  00000+0  15943-2 0  9995",
        "tle_line2": "2 31898  98.7065 207.9611 0143926 229.9634 128.8870 14.68362334656632"
      },
      "geometry": {
        "type": "Point",
        "coordinates": [
          11.468174680513345,
          -64.22233052410887
        ]
      }
    }
  ]
}